NORAD_CAT_ID,OBJECT_NAME,OBJECT_TYPE,EPOCH,MEAN_MOTION,ECCENTRICITY,INCLINATION,RA_OF_ASC_NODE,ARG_OF_PERICENTER,MEAN_ANOMALY,BSTAR,MEAN_MOTION_DOT,MEAN_MOTION_DDOT,TLE_LINE0,TLE_LINE1,TLE_LINE2,SEMIMAJOR_AXIS,PERIOD,APOGEE,PERIGEE,DECAYED
51971.0,STARLINK-3669,PAYLOAD,2022-12-03 06:06:26,15.08832781,0.0002598,53.2199,342.1753,31.7,328.4148,1.3432e-05,-7.5e-07,0.0,0 STARLINK-3669,1 51971U 22025R   22337.25446922 -.00000075  00000-0  13432-4 0  9995,2 51971  53.2199 342.1753 0002598  31.7000 328.4148 15.08832781 42294,6917.901999999999,95.438,541.565,537.97,0.0
51971.0,STARLINK-3669,PAYLOAD,2022-12-03 10:52:35,15.08833561,0.0002687,53.2201,341.2835,31.1318,328.9833,2.9944e-06,-2.41e-06,0.0,0 STARLINK-3669,1 51971U 22025R   22337.45318979 -.00000241  00000-0  29944-5 0  9998,2 51971  53.2201 341.2835 0002687  31.1318 328.9833 15.08833561 41218,6917.9,95.438,541.624,537.906,0.0
51971.0,STARLINK-3669,PAYLOAD,2022-12-03 17:14:07,15.08836429,0.0002659,53.2201,340.0939,31.2571,328.8578,9.7262e-05,1.26e-05,0.0,0 STARLINK-3669,1 51971U 22025R   22337.71814664  .00001260  00000-0  97262-4 0  9997,2 51971  53.2201 340.0939 0002659  31.2571 328.8578 15.08836429 41256,6917.891,95.438,541.596,537.9169999999998,0.0
51971.0,STARLINK-3669,PAYLOAD,2022-12-04 01:11:03,15.08846175,0.0002648,53.22,338.6069,31.6925,328.4226,7.0052e-05,8.27e-06,0.0,0 STARLINK-3669,1 51971U 22025R   22338.04934090  .00000827  00000-0  70052-4 0  9996,2 51971  53.2200 338.6069 0002648  31.6925 328.4226 15.08846175 42411,6917.861999999999,95.437,541.558,537.895,0.0
51971.0,STARLINK-3669,PAYLOAD,2022-12-04 09:07:59,15.0883648,0.0002626,53.2203,337.1201,32.1213,327.9939,-1.3694e-05,-5.06e-06,0.0,0 STARLINK-3669,1 51971U 22025R   22338.38054970 -.00000506  00000-0 -13694-4 0  9998,2 51971  53.2203 337.1201 0002626  32.1213 327.9939 15.08836480 42466,6917.891,95.438,541.573,537.94,0.0
51971.0,STARLINK-3669,PAYLOAD,2022-12-05 01:01:50,15.088420499999998,0.0002756,53.2199,334.1475,28.0068,332.1072,0.00015876,2.239e-05,0.0,0 STARLINK-3669,1 51971U 22025R   22339.04294316  .00002239  00000-0  15876-3 0  9998,2 51971  53.2199 334.1475 0002756  28.0068 332.1072 15.08842050 42563,6917.874,95.437,541.646,537.8330000000002,0.0
51971.0,STARLINK-3669,PAYLOAD,2022-12-05 05:47:59,15.08838792,0.0002943,53.2193,333.2552,21.9798,338.13199999999995,0.0001953,2.821e-05,0.0,0 STARLINK-3669,1 51971U 22025R   22339.24166555  .00002821  00000-0  19530-3 0  9991,2 51971  53.2193 333.2552 0002943  21.9798 338.1320 15.08838792 41483,6917.884,95.438,541.785,537.7130000000002,0.0
51971.0,STARLINK-3669,PAYLOAD,2022-12-05 16:55:41,15.08847192,0.0002731,53.2197,331.1745,32.7638,327.3523,0.00015223,2.136e-05,0.0,0 STARLINK-3669,1 51971U 22025R   22339.70534074  .00002136  00000-0  15223-3 0  9991,2 51971  53.2197 331.1745 0002731  32.7638 327.3523 15.08847192 41553,6917.858,95.437,541.613,537.8340000000002,0.0
51971.0,STARLINK-3669,PAYLOAD,2022-12-06 05:38:45,15.08855132,0.0002829,53.2194,328.7964,30.8096,329.3062,-5.7709e-05,-1.207e-05,0.0,0 STARLINK-3669,1 51971U 22025R   22340.23525403 -.00001207  00000-0 -57709-4 0  9993,2 51971  53.2194 328.7964 0002829  30.8096 329.3062 15.08855132 42745,6917.834,95.437,541.656,537.742,0.0
51971.0,STARLINK-3669,PAYLOAD,2022-12-06 07:14:09,15.08846255,0.0002734,53.2189,328.4982,32.2109,327.905,0.00015973,2.255e-05,0.0,0 STARLINK-3669,1 51971U 22025R   22340.30149977  .00002255  00000-0  15973-3 0  9997,2 51971  53.2189 328.4982 0002734  32.2109 327.9050 15.08846255 42750,6917.861,95.437,541.618,537.835,0.0
51971.0,STARLINK-3669,PAYLOAD,2022-12-06 23:08:01,15.08834017,0.0003009,53.2199,325.5269,30.9811,329.1359,-5.039100000000001e-05,-1.09e-05,0.0,0 STARLINK-3669,1 51971U 22025R   22340.96390882 -.00001090  00000-0 -50391-4 0  9994,2 51971  53.2199 325.5269 0003009  30.9811 329.1359 15.08834017 42858,6917.899,95.438,541.845,537.682,0.0
51971.0,STARLINK-3669,PAYLOAD,2022-12-07 16:37:16,15.08832539,0.0002648,53.2189,322.2527,30.131,329.9834,-1.7109000000000002e-05,-5.61e-06,0.0,0 STARLINK-3669,1 51971U 22025R   22341.69255336 -.00000561  00000-0 -17109-4 0  9991,2 51971  53.2189 322.2527 0002648  30.1310 329.9834 15.08832539 41854,6917.903,95.438,541.6,537.936,0.0
51971.0,STARLINK-3669,PAYLOAD,2022-12-08 05:20:20,15.088507,0.0002667,53.2198,319.8745,27.393,332.7202,0.00026325,3.905e-05,0.0,0 STARLINK-3669,1 51971U 22025R   22342.22246514  .00003905  00000-0  26325-3 0  9991,2 51971  53.2198 319.8745 0002667  27.3930 332.7202 15.08850700 43049,6917.848000000001,95.437,541.558,537.868,0.0
51971.0,STARLINK-3669,PAYLOAD,2022-12-08 08:31:07,15.08852705,0.0002753,53.2188,319.2799,32.0946,328.0213,0.00032635,4.911e-05,0.0,0 STARLINK-3669,1 51971U 22025R   22342.35494421  .00004911  00000-0  32635-3 0  9996,2 51971  53.2188 319.2799 0002753  32.0946 328.0213 15.08852705 41952,6917.842,95.437,541.611,537.802,0.0
51971.0,STARLINK-3669,PAYLOAD,2022-12-09 08:21:53,15.08857446,0.0002671,53.2193,314.821,24.7531,335.3589,0.00033588,5.064e-05,0.0,0 STARLINK-3669,1 51971U 22025R   22343.34853565  .00005064  00000-0  33588-3 0  9992,2 51971  53.2193 314.8210 0002671  24.7531 335.3589 15.08857446 43219,6917.8269999999975,95.436,541.54,537.844,0.0
51971.0,STARLINK-3669,PAYLOAD,2022-12-10 05:01:55,15.08818923,0.0002232,53.2191,310.954,29.3752,330.7366,-0.00044909,-7.425e-05,0.0,0 STARLINK-3669,1 51971U 22025R   22344.20967560 -.00007425  00000-0 -44909-3 0  9993,2 51971  53.2191 310.9540 0002232  29.3752 330.7366 15.08818923 43342,6917.945,95.439,541.354,538.266,0.0
51971.0,STARLINK-3669,PAYLOAD,2022-12-10 08:12:42,15.08821193,0.0002188,53.2192,310.3591,29.4812,330.6304,-0.00034362,-5.75e-05,0.0,0 STARLINK-3669,1 51971U 22025R   22344.34215628 -.00005750  00000-0 -34362-3 0  9990,2 51971  53.2192 310.3591 0002188  29.4812 330.6304 15.08821193 42254,6917.938,95.439,541.317,538.289,0.0
51971.0,STARLINK-3669,PAYLOAD,2022-12-11 06:28:06,15.08846316,0.0002324,53.2197,306.1974,32.0974,328.0159,0.00092436,0.00014456,0.0,0 STARLINK-3669,1 51971U 22025R   22345.26952162  .00014456  00000-0  92436-3 0  9990,2 51971  53.2197 306.1974 0002324  32.0974 328.0159 15.08846316 43500,6917.861,95.437,541.3340000000002,538.118,0.0
51971.0,STARLINK-3669,PAYLOAD,2022-12-11 08:03:29,15.08853176,0.0002304,53.2197,305.9,32.1543,327.9589,0.0010316,0.00016174,0.0,0 STARLINK-3669,1 51971U 22025R   22345.33576076  .00016174  00000-0  10316-2 0  9999,2 51971  53.2197 305.9000 0002304  32.1543 327.9589 15.08853176 42403,6917.84,95.437,541.299,538.111,0.0
51971.0,STARLINK-3669,PAYLOAD,2022-12-12 03:08:07,15.08843463,0.0002325,53.2207,302.332,41.1203,318.9964,0.0001877,2.701e-05,0.0,0 STARLINK-3669,1 51971U 22025R   22346.13064095  .00002701  00000-0  18770-3 0  9995,2 51971  53.2207 302.3320 0002325  41.1203 318.9964 15.08843463 43638,6917.87,95.437,541.3430000000002,538.126,0.0
51971.0,STARLINK-3669,PAYLOAD,2022-12-12 06:18:53,15.08845654,0.0002561,53.219,301.7363,28.9472,331.1662,0.00029426,4.399e-05,0.0,0 STARLINK-3669,1 51971U 22025R   22346.26312125  .00004399  00000-0  29426-3 0  9994,2 51971  53.2190 301.7363 0002561  28.9472 331.1662 15.08845654 42547,6917.863,95.437,541.5,537.956,0.0
51971.0,STARLINK-3669,PAYLOAD,2022-12-12 20:37:22,15.08824809,0.0002961,53.2187,299.0618,32.3333,327.784,-0.00011659,-2.143e-05,0.0,0 STARLINK-3669,1 51971U 22025R   22346.85929271 -.00002143  00000-0 -11659-3 0  9991,2 51971  53.2187 299.0618 0002961  32.3333 327.7840 15.08824809 42632,6917.927,95.439,541.84,537.743,0.0
51971.0,STARLINK-3669,PAYLOAD,2022-12-13 02:58:55,15.08828023,0.0002389,53.2196,297.8712,32.0325,328.0812,-9.7097e-05,-1.833e-05,0.0,0 STARLINK-3669,1 51971U 22025R   22347.12425398 -.00001833  00000-0 -97097-4 0  9999,2 51971  53.2196 297.8712 0002389  32.0325 328.0812 15.08828023 43787,6917.917,95.438,541.435,538.129,0.0
51971.0,STARLINK-3669,PAYLOAD,2022-12-13 06:09:41,15.08833671,0.0002505,53.2187,297.276,28.7974,331.3156,5.186e-05,5.37e-06,0.0,0 STARLINK-3669,1 51971U 22025R   22347.25673321  .00000537  00000-0  51860-4 0  9990,2 51971  53.2187 297.2760 0002505  28.7974 331.3156 15.08833671 42698,6917.9,95.438,541.498,538.0319999999998,0.0
51971.0,STARLINK-3669,PAYLOAD,2022-12-13 14:06:37,15.08842197,0.0002481,53.2187,295.7899,28.0123,332.1002,0.00025204,3.725e-05,0.0,0 STARLINK-3669,1 51971U 22025R   22347.58793081  .00003725  00000-0  25204-3 0  9996,2 51971  53.2187 295.7899 0002481  28.0123 332.1002 15.08842197 43857,6917.874,95.437,541.455,538.0219999999998,0.0
51971.0,STARLINK-3669,PAYLOAD,2022-12-14 02:49:41,15.08858553,0.0002874,53.2192,293.4132,25.9948,334.1188,0.00056968,8.795e-05,0.0,0 STARLINK-3669,1 51971U 22025R   22348.11784513  .00008795  00000-0  56968-3 0  9999,2 51971  53.2192 293.4132 0002874  25.9948 334.1188 15.08858553 43934,6917.824000000001,95.436,541.677,537.7,0.0
51971.0,STARLINK-3669,PAYLOAD,2022-12-14 13:57:23,15.08853131,0.0002896,53.2185,291.3326,26.6515,333.4626,0.00038039,5.773e-05,0.0,0 STARLINK-3669,1 51971U 22025R   22348.58152429  .00005773  00000-0  38039-3 0  9997,2 51971  53.2185 291.3326 0002896  26.6515 333.4626 15.08853131 42890,6917.84,95.437,541.7090000000002,537.702,0.0
51971.0,STARLINK-3669,PAYLOAD,2022-12-15 07:26:38,15.08847062,0.0002556,53.2186,288.0585,30.26,329.8539,0.00014157,1.966e-05,0.0,0 STARLINK-3669,1 51971U 22025R   22349.31016227  .00001966  00000-0  14157-3 0  9999,2 51971  53.2186 288.0585 0002556  30.2600 329.8539 15.08847062 44115,6917.859,95.437,541.492,537.956,0.0
51971.0,STARLINK-3669,PAYLOAD,2022-12-15 20:09:42,15.08851048,0.0002686,53.218,285.6804,30.0737,330.0409,8.7554e-06,-1.49e-06,0.0,0 STARLINK-3669,1 51971U 22025R   22349.84007385 -.00000149  00000-0  87554-5 0  9998,2 51971  53.2180 285.6804 0002686  30.0737 330.0409 15.08851048 43083,6917.847,95.437,541.57,537.8530000000002,0.0
